STARLINK-2145           
1 48555U 21041C   24111.82990549  .00025160  00000+0  17015-2 0  9999
2 48555  53.0557 349.5387 0001148 103.5822 256.5295 15.06410440161836
